0 COSMOS 1900
1 18665U 87101A   13282.19873465  .00000007  00000-0  25634-4 0  9847
2 18665 066.0867 353.7796 0027040 073.4781 286.9292 14.54016511374510
0 COSMOS 1900
1 18665U 87101A   13283.36804791  .00000009  00000-0  26039-4 0  9856
2 18665 066.0866 350.5209 0027077 072.4972 287.9089 14.54016550374680
0 COSMOS 1900
1 18665U 87101A   13283.50562397  .00000257  00000-0  60397-4 0  9866
2 18665 066.0871 350.1440 0026890 073.6528 286.8014 14.54016199374709
0 COSMOS 1900
1 18665U 87101A   13286.46328772  .00000046  00000-0  34790-4 0  9876
2 18665 066.0861 341.8952 0027177 069.8523 290.5502 14.54017135375137
0 COSMOS 1900
1 18665U 87101A   13287.49503417  .00000056  00000-0  37199-4 0  9889
2 18665 066.0859 339.0198 0027224 069.0022 291.3991 14.54017525375284
0 COSMOS 1900
1 18665U 87101A   13288.52678032  .00000073  00000-0  41200-4 0  9898
2 18665 066.0858 336.1444 0027281 068.1775 292.2229 14.54018075375435
0 COSMOS 1900
1 18665U 87101A   13289.55852606  .00000057  00000-0  37512-4 0  9908
2 18665 066.0857 333.2690 0027326 067.3272 293.0719 14.54018707375589
0 COSMOS 1900
1 18665U 87101A   13290.52149797  .00000200  00000-0  47002-4 0  9924
2 18665 066.0863 330.5912 0027117 067.7981 292.6490 14.54018734375729
0 COSMOS 1900
1 18665U 87101A   13291.07175260  .00000032  00000-0  31580-4 0  9915
2 18665 066.0855 329.0516 0027400 066.1054 294.2917 14.54019296375807
0 COSMOS 1900
1 18665U 87101A   13292.17228034  .00000043  00000-0  34075-4 0  9920
2 18665 066.0854 325.9843 0027451 065.2231 295.1726 14.54019548375962
0 COSMOS 1900
1 18665U 87101A   13293.47915667  .00000069  00000-0  40288-4 0  9931
2 18665 066.0854 322.3420 0027522 064.1571 296.2368 14.54019785376157
0 COSMOS 1900
1 18665U 87101A   13294.51090092  .00000076  00000-0  41853-4 0  9941
2 18665 066.0852 319.4664 0027572 063.3850 297.0075 14.54020138376303
0 COSMOS 1900
1 18665U 87101A   13296.16169144  .00000107  00000-0  49120-4 0  9950
2 18665 066.0852 314.8657 0027664 061.9793 298.4106 14.54020818376547
